nombre,telefono,web_link,direccion,codigo_postal,latitude,longitude,descripcion,maps_link,place_id,sector,tipo_instalacion,subtipo_instalacion,provincia,municipio,otro1,otro2,id,comarca,area_actividad,otro3
Gimnasio Sonfit,+34 640 01 58 51,https://gimnasiosonfit.com/,"Rúa Benigno Quiroga, 36, 27360 Láncara, Lugo",27360.0,42.8636206,-7.4454762,"En Sonfit encontrarás todas las actividades que más te gustan, en un ambiente familiar que hará que te resulte fácil venir y ejercitarte. Disfrutarás de grandes momentos y verás cambios positivos en ti. Sabemos que hacer deporte es saludable y estimulante pero también sabemos que a veces cuesta sacar tiempo. Tu tiempo en el gimnasio será ameno y divertido vendrás a disfrutar sin pensar en nada más y verás sus beneficios poco a poco.","https://www.google.com/maps/place/Gimnasio+Sonfit/@42.8636206,-7.4454762,14z/data=!4m8!1m2!2m1!1sGimnasio+Sonfit!3m4!1s0xd3035140c3b8175:0x92f57ec4474d3012!8m2!3d42.8636206!4d-7.4454762",ChIJdYE7DBQ1MA0REjBNR8R-9ZI,Gimnasio,Gymnastics center,Gymnastics center,Galicia,Láncara,"fitness center, San Pantaleon Das Viñas (San Pantaleon), Galicia, ES","{""Service options"": {""On-site services"": true, ""Online classes"": false}, ""Accessibility"": {""Wheelchair-accessible car park"": true, ""Wheelchair-accessible entrance"": true, ""Wheelchair-accessible toilet"": true}, ""Amenities"": {""Toilets"": true}, ""Planning"": {""Membership required"": true}, ""Children"": {""Good for kids"": true}}",1,Sarria,,
Cemitério de Vilesteva,,,"27699 Láncara, Lugo",27699.0,42.8274055,-7.231548,,"https://www.google.com/maps/place/Cemit%C3%A9rio+de+Vilesteva/@42.8274055,-7.231548,14z/data=!4m8!1m2!2m1!1sCemit%C3%A9rio+de+Vilesteva!3m4!1s0xd3051b6d3edfb75:0xdb983de8a914ded8!8m2!3d42.8274055!4d-7.231548",ChIJdfvt07ZRMA0R2N4Uqeg9mNs,Cementerio,Cemetery,Cemetery,Galicia,Láncara,"fitness center, Vilaesteva (Santa Maria) (Lancara), Galicia, ES",{},2,Sarria,,
Piscina Municipal “Os Carrís”,+34 988 26 35 19,,"Rúa das Cuartas, 21, 32002 Barbadás, Ourense",32002.0,42.3127584,-7.8825704,,"https://www.google.com/maps/place/Piscina+Municipal+%E2%80%9COs+Carr%C3%ADs%E2%80%9D/@42.3127584,-7.8825704,14z/data=!4m8!1m2!2m1!1sPiscina+Municipal+%E2%80%9COs+Carr%C3%ADs%E2%80%9D!3m4!1s0xd2ff94580fa2eaf:0x576997a4bb1f722f!8m2!3d42.3127584!4d-7.8825704",ChIJry76gEX5Lw0RL3Ifu6SXaVc,Piscinas,Swimming facility,Swimming facility,Galicia,,"swimming pool, Ponton, O (Barbadas), Galicia, ES","{""Accessibility"": {""Wheelchair-accessible car park"": true, ""Wheelchair-accessible entrance"": true}}",3,Orense,,
Polideportivo de Barbadás,+34 988 26 35 19,http://edbarbadas.com/horarios/,"32002 Barbadás, Province of Ourense",32002.0,42.3127397,-7.881140299999999,,"https://www.google.com/maps/place/Polideportivo+de+Barbad%C3%A1s/@42.3127397,-7.881140299999999,14z/data=!4m8!1m2!2m1!1sPolideportivo+de+Barbad%C3%A1s!3m4!1s0xd2ff8d0efb1b747:0x64a0b88355e0530!8m2!3d42.3127397!4d-7.881140299999999",ChIJR7ex79D4Lw0RMAVeNYgLSgY,Sports complex,Sports complex,Sports complex,Galicia,,"swimming pool, Ponton, O (Barbadas), Galicia, ES","{""Accessibility"": {""Wheelchair-accessible car park"": true, ""Wheelchair-accessible entrance"": true}}",4,Orense,,
La Chapa Pool CLUB,,,"Barrio Chapa A, 26, 32001 Ourense, Province of Ourense",32001.0,42.3537558,-7.873264499999999,,"https://www.google.com/maps/place/La+Chapa+Pool+CLUB/@42.353755799999995,-7.873264499999999,14z/data=!4m8!1m2!2m1!1sLa+Chapa+Pool+CLUB!3m4!1s0xd2ff9c24717f013:0x94820ff5409699dc!8m2!3d42.353755799999995!4d-7.873264499999999",ChIJE_AXR8L5Lw0R3JmWQPUPgpQ,Piscina al aire libre,Outdoor swimming pool,Outdoor swimming pool,Galicia,,"swimming pool, Ponton, O (Barbadas), Galicia, ES","{""Accessibility"": {""Wheelchair-accessible entrance"": true}}",5,Orense,,
Piscinas Taboadela,+34 664 10 59 79,,"32690 Taboadela, Province of Ourense",32690.0,42.239712,-7.8202921,,"https://www.google.com/maps/place/Piscinas+Taboadela/@42.239712,-7.8202921,14z/data=!4m8!1m2!2m1!1sPiscinas+Taboadela!3m4!1s0xd2554fb6355e205:0xd262cf4c20763bf!8m2!3d42.239712!4d-7.8202921",ChIJBeJVY_tUJQ0Rv2MHwvQsJg0,attractions,Public swimming pool,Public swimming pool,Galicia,,"swimming pool, Ponton, O (Barbadas), Galicia, ES","{""Accessibility"": {""Wheelchair-accessible entrance"": true}, ""Children"": {""Good for kids"": true}}",6,Orense,,
Piscina Municipal Avión,+34 636 03 08 25,https://www.facebook.com/Piscina-Municipal-de-Avi%C3%B3n-636285539814105,"PO-9304, s/n, 32520, Province of Ourense",32520.0,42.3770828,-8.260524799999999,,"https://www.google.com/maps/place/Piscina+Municipal+Avi%C3%B3n/@42.3770828,-8.260524799999999,14z/data=!4m8!1m2!2m1!1sPiscina+Municipal+Avi%C3%B3n!3m4!1s0xd2f8e53c2bb5fcd:0xe5cb34f3e06aa7f3!8m2!3d42.3770828!4d-8.260524799999999",ChIJzV-7wlOOLw0R86dq4PM0y-U,Piscina,Swimming pool,Swimming pool,Galicia,,"swimming pool, Ponton, O (Barbadas), Galicia, ES","{""Accessibility"": {""Wheelchair-accessible car park"": true, ""Wheelchair-accessible entrance"": true}}",7,Ribeiro,,
Pazo dos Deportes,+34 982 25 19 72,http://lugo.gal/es/localizaciones/pabellon-municipal-de-deportes,"Av. Filarmónica Lucense, 27002 Lugo",27002.0,42.9912734,-7.5453399,,"https://www.google.com/maps/place/Pazo+dos+Deportes/@42.9912734,-7.5453399,14z/data=!4m8!1m2!2m1!1sPazo+dos+Deportes!3m4!1s0xd31cc1634fcce09:0xfe1115e9c5b0e89c!8m2!3d42.9912734!4d-7.5453399",ChIJCc78NBbMMQ0RnOiwxekVEf4,Complexo deportivo,Sports complex,Sports complex,Galicia,Lugo,"sports complex, Prevesos, Galicia, ES","{""Accessibility"": {""Wheelchair-accessible car park"": true, ""Wheelchair-accessible entrance"": true}}",8,Lugo,,
Pavillón Municipal de Deportes,+34 982 12 40 02,http://www.concellodebarreiros.gal/gl/servizos/pavillon-municipal,"Estrada Praia San Cosme, 27790 A Insua, Lugo",27790.0,43.5457608,-7.2294601,,"https://www.google.com/maps/place/Pavill%C3%B3n+Municipal+de+Deportes/@43.5457608,-7.2294601,14z/data=!4m8!1m2!2m1!1sPavill%C3%B3n+Municipal+de+Deportes!3m4!1s0xd3187991d6b02fd:0x2634eada926b16f!8m2!3d43.5457608!4d-7.2294601",ChIJ_QJrHZmHMQ0Rb7Emqa1OYwI,Polideportivo,Sports complex,Sports complex,Galicia,Barreiros,"sports complex, Prevesos, Galicia, ES","{""Accessibility"": {""Wheelchair-accessible car park"": true, ""Wheelchair-accessible entrance"": true}}",9,Mariña Oriental,,
UTVOFFROAD,+34 620 47 00 78,,"Rua da Margarida, 62, 27003 Lugo",27003.0,43.027993,-7.569962999999999,,"https://www.google.com/maps/place/UTVOFFROAD/@43.027992999999995,-7.5699629999999996,14z/data=!4m8!1m2!2m1!1sUTVOFFROAD!3m4!1s0xd31ce58f05aaaab:0x38e7d23857a32b8!8m2!3d43.027992999999995!4d-7.5699629999999996",ChIJq6pa8FjOMQ0RuDJ6hSN9jgM,Centro de deportes de aventura,Adventure sports center,Adventure sports center,Galicia,Lugo,"sports complex, Prevesos, Galicia, ES",{},10,Lugo,,
D10,+34 982 98 60 35,http://www.sportd10.com/,"Lugar de Mosteiro, 27150 Outeiro de Rei, Lugo",27150.0,43.0877434,-7.5467429,,"https://www.google.com/maps/place/D10/@43.0877434,-7.5467429,14z/data=!4m8!1m2!2m1!1sD10!3m4!1s0xd31b9805ada3501:0xd868e3a2006307c2!8m2!3d43.0877434!4d-7.5467429",ChIJATXaWoC5MQ0RwgdjAKLjaNg,Centro deportivo,Fitness center,"Fitness center, Coffee shop, Gym, Padel club, Restaurant, Swimming pool, Tennis club",Galicia,Lugo,"sports complex, Prevesos, Galicia, ES","{""Accessibility"": {""Wheelchair-accessible car park"": true, ""Wheelchair-accessible entrance"": true}, ""Amenities"": {""Basketball court"": true, ""Has a tennis court"": true, ""Sauna"": true, ""Swimming pool"": true}, ""Children"": {""Good for kids"": true}}",11,Lugo,,
Pavillón Municipal de Deportes,+34 982 22 39 30,,"Estrada Vella de Santiago, s/n, 27004 Lugo",27004.0,43.0050235,-7.5624294,,"https://www.google.com/maps/place/Pavill%C3%B3n+Municipal+de+Deportes/@43.0050235,-7.5624294,14z/data=!4m8!1m2!2m1!1sPavill%C3%B3n+Municipal+de+Deportes!3m4!1s0xd31cc2a1771fa51:0x97857d75adb6946f!8m2!3d43.0050235!4d-7.5624294",ChIJUfpxFyrMMQ0Rb5S2rXV9hZc,Complexo deportivo,Sports complex,Sports complex,Galicia,Lugo,"sports complex, Prevesos, Galicia, ES","{""Accessibility"": {""Wheelchair-accessible car park"": true, ""Wheelchair-accessible entrance"": true}}",12,Lugo,,
Polideportivo Municipal Lugo,+34 982 29 74 23,,"Rúa Monte Faro, 129, 27297 Lugo",27297.0,43.0263266,-7.561762099999999,,"https://www.google.com/maps/place/Polideportivo+Municipal+Lugo/@43.0263266,-7.561762099999999,14z/data=!4m8!1m2!2m1!1sPolideportivo+Municipal+Lugo!3m4!1s0xd31cef136f723e9:0xb258692a94cc2699!8m2!3d43.0263266!4d-7.561762099999999",ChIJ6SP3NvHOMQ0RmSbMlCppWLI,Sports complex,Sports complex,Sports complex,Galicia,Lugo,"sports complex, Prevesos, Galicia, ES","{""Accessibility"": {""Wheelchair-accessible car park"": true, ""Wheelchair-accessible entrance"": true}}",13,Lugo,,
Pabellon Os Castros,,,"Estrada General Cangas, 1, 27892 Foz, Lugo",27892.0,43.6290177,-7.335442299999999,,"https://www.google.com/maps/place/Pabellon+Os+Castros/@43.6290177,-7.3354422999999995,14z/data=!4m8!1m2!2m1!1sPabellon+Os+Castros!3m4!1s0xd3226a132d2603d:0xff1e7e3204df5ff4!8m2!3d43.6290177!4d-7.3354422999999995",ChIJPWDSMqEmMg0R9F_fBDJ-Hv8,Polideportivo,Sports complex,Sports complex,Galicia,,"sports complex, Prevesos, Galicia, ES","{""Accessibility"": {""Wheelchair-accessible car park"": true, ""Wheelchair-accessible entrance"": true}}",14,Mariña Central,,
Complexo polideportivo O Palomar,+34 982 29 74 23,,"Av. dos Deportes, 27, 27004 Lugo",27004.0,43.0039759,-7.572867899999999,,"https://www.google.com/maps/place/Complexo+polideportivo+O+Palomar/@43.0039759,-7.572867899999999,14z/data=!4m8!1m2!2m1!1sComplexo+polideportivo+O+Palomar!3m4!1s0xd31ce7f235de92d:0x485c3857cc3018d4!8m2!3d43.0039759!4d-7.572867899999999",ChIJLeldI3_OMQ0R1BgwzFc4XEg,Polideportivo,Sports complex,Sports complex,Galicia,Lugo,"sports complex, Prevesos, Galicia, ES","{""Accessibility"": {""Wheelchair-accessible car park"": true, ""Wheelchair-accessible entrance"": true}}",15,Lugo,,
Anexo ao Pazo dos Deportes,,,27002 Lugo,27002.0,42.991758,-7.545298,,"https://www.google.com/maps/place/Anexo+ao+Pazo+dos+Deportes/@42.991758,-7.545298,14z/data=!4m8!1m2!2m1!1sAnexo+ao+Pazo+dos+Deportes!3m4!1s0xd31cc17cbe0fc51:0x9455d6b81a1bdaa8!8m2!3d42.991758!4d-7.545298",ChIJUfzgyxfMMQ0RqNobGrjWVZQ,Gimnasio,Gym,Gym,Galicia,Lugo,"sports complex, Prevesos, Galicia, ES","{""Accessibility"": {""Wheelchair-accessible car park"": true, ""Wheelchair-accessible entrance"": true}, ""Amenities"": {""Basketball court"": true}}",16,Lugo,,
Pabellon municipal Outeiro de Rei,,,"27150 Outeiro de Rei, Lugo",27150.0,43.1057434,-7.6147208,,"https://www.google.com/maps/place/Pabellon+municipal+Outeiro+de+Rei/@43.1057434,-7.6147208,14z/data=!4m8!1m2!2m1!1sPabellon+municipal+Outeiro+de+Rei!3m4!1s0xd31dad213477f7b:0x41119e656f240fed!8m2!3d43.1057434!4d-7.6147208",ChIJe39HE9LaMQ0R7Q8kb2WeEUE,Polideportivo,Sports complex,Sports complex,Galicia,,"sports complex, Prevesos, Galicia, ES","{""Accessibility"": {""Wheelchair-accessible car park"": true, ""Wheelchair-accessible entrance"": true}}",17,Lugo,,
Serviocio Cultura Deporte Y Recreacion S L,+34 982 13 01 41,https://www.serviocio.es/,"Rúa Pintor Fierros, 0, 27700 Ribadeo, Lugo",27700.0,43.5362608,-7.0477105,,"https://www.google.com/maps/place/Serviocio+Cultura+Deporte+Y+Recreacion+S+L/@43.5362608,-7.0477105,14z/data=!4m8!1m2!2m1!1sServiocio+Cultura+Deporte+Y+Recreacion+S+L!3m4!1s0xd317e556fd5b927:0xcdd389213f956781!8m2!3d43.5362608!4d-7.0477105",ChIJJ7nVb1V-MQ0RgWeVPyGJ080,Polideportivo,Sports complex,Sports complex,Galicia,,"sports complex, Prevesos, Galicia, ES","{""Accessibility"": {""Wheelchair-accessible entrance"": true}}",18,Mariña Oriental,,
Lino Arena,,,"27270 Pol, Lugo",27270.0,43.1332798,-7.3518292,,"https://www.google.com/maps/place/Lino+Arena/@43.1332798,-7.3518292,14z/data=!4m8!1m2!2m1!1sLino+Arena!3m4!1s0xd31b905c651a7ad:0xbe4e46811bcae44e!8m2!3d43.1332798!4d-7.3518292",ChIJradRxgW5MQ0RTuTKG4FGTr4,Club deportivo,Sports club,Sports club,Galicia,Pol,"sports complex, Prevesos, Galicia, ES",{},19,Meira,,
Complexo deportivo das Travesas,+34 986 23 99 97,https://deportes.vigo.org/ga/instalacion-deportiva/complexo-deportivo-travesas-24,"Av. de Castrelos, 1, Freijeiro, 36210 Vigo, Pontevedra",36210.0,42.2192357,-8.732087,,"https://www.google.com/maps/place/Complexo+deportivo+das+Travesas/@42.2192357,-8.732087,14z/data=!4m8!1m2!2m1!1sComplexo+deportivo+das+Travesas!3m4!1s0xd2f6209752b7ecf:0xa4d0d9af41dc8617!8m2!3d42.2192357!4d-8.732087",ChIJz34rdQliLw0RF4bcQa_Z0KQ,Complexo deportivo,Sports complex,Sports complex,Galicia,,"sports complex, Prevesos, Galicia, ES","{""Accessibility"": {""Wheelchair-accessible car park"": true, ""Wheelchair-accessible entrance"": true}}",20,Vigo,,
BeOne Fitness & Sport,+34 982 87 36 42,https://beone.es/lugo/,"Rúa Cornubia, 5, 27002 Lugo",27002.0,43.0016991,-7.5522043,,"https://www.google.com/maps/place/BeOne+Fitness+%26+Sport/@43.001699099999996,-7.5522043,14z/data=!4m8!1m2!2m1!1sBeOne+Fitness+%26+Sport!3m4!1s0xd31cd6ce69f3009:0x3dd383c460ba9f2c!8m2!3d43.001699099999996!4d-7.5522043",ChIJCTCf5mzNMQ0RLJ-6YMSD0z0,Centro deportivo,Fitness center,"Fitness center, Gymnastics center, Swimming pool",Galicia,Lugo,"sports complex, Prevesos, Galicia, ES","{""Service options"": {""On-site services"": true}, ""Accessibility"": {""Wheelchair-accessible car park"": true, ""Wheelchair-accessible entrance"": true, ""Wheelchair-accessible toilet"": true}, ""Amenities"": {""Sauna"": true, ""Swimming pool"": true, ""Toilets"": true}, ""Crowd"": {""LGBTQ+ friendly"": true}, ""Children"": {""Good for kids"": true}, ""Other"": {""LGBTQ+ friendly"": true}}",21,Lugo,,
Centro de Entrenamiento Personal y Rendimiento Deportivo J_Dovale Preparadores Físicos,+34 680 19 81 39,https://www.jdovale.es/,"Rúa dos Carros, 5, 27003 Lugo",27003.0,43.0463016,-7.559130899999999,,"https://www.google.com/maps/place/Centro+de+Entrenamiento+Personal+y+Rendimiento+Deportivo+J_Dovale+Preparadores+F%C3%ADsicos/@43.0463016,-7.5591308999999995,14z/data=!4m8!1m2!2m1!1sCentro+de+Entrenamiento+Personal+y+Rendimiento+Deportivo+J_Dovale+Preparadores+F%C3%ADsicos!3m4!1s0xd31cf951c307247:0x6779cf031c6c2dd0!8m2!3d43.0463016!4d-7.5591308999999995",ChIJR3IwHJXPMQ0R0C1sHAPPeWc,Entrenador personal,Personal trainer,"Personal trainer, Gymnastics center, Physical therapist, Pilates studio, Sports nutrition store",Galicia,Lugo,"sports complex, Prevesos, Galicia, ES","{""Service options"": {""On-site services"": true, ""Online classes"": false}, ""Accessibility"": {""Wheelchair-accessible car park"": true, ""Wheelchair-accessible entrance"": true, ""Wheelchair-accessible seating"": true, ""Wheelchair-accessible toilet"": true}, ""Amenities"": {""Toilets"": true}, ""Crowd"": {""LGBTQ+ friendly"": true, ""Transgender safe space"": true}, ""Planning"": {""Appointment required"": true}, ""Other"": {""LGBTQ+ friendly"": true}}",22,Lugo,,
Casa do Deporte,+34 982 29 74 23,,27003 Lugo,27003.0,43.0249999,-7.560325799999999,,"https://www.google.com/maps/place/Casa+do+Deporte/@43.0249999,-7.560325799999999,14z/data=!4m8!1m2!2m1!1sCasa+do+Deporte!3m4!1s0xd31cef3ad59b413:0xefd5e23082eca8c0!8m2!3d43.0249999!4d-7.560325799999999",ChIJE7RZrfPOMQ0RwKjsgjDi1e8,Centro deportivo,Fitness center,Fitness center,Galicia,Lugo,"sports complex, Prevesos, Galicia, ES","{""Accessibility"": {""Wheelchair-accessible car park"": true, ""Wheelchair-accessible entrance"": true}, ""Amenities"": {""Basketball court"": true, ""Volleyball court"": true}, ""Children"": {""Good for kids"": true}}",23,Lugo,,
Multisports Galicia S.L.U.,+34 982 81 68 84,http://www.championchipnorte.com/,"Complejo San Cristobal, Avda. Benigno Rivera, Rúa dos Canteiros, 101, Nave 10, 27003 Lugo",27003.0,43.0457884,-7.5695982,,"https://www.google.com/maps/place/Multisports+Galicia+S.L.U./@43.0457884,-7.5695982,14z/data=!4m8!1m2!2m1!1sMultisports+Galicia+S.L.U.!3m4!1s0xd31cfaf3e243a7b:0x2c0bb9c4f5b8b5bf!8m2!3d43.0457884!4d-7.5695982",ChIJezokPq_PMQ0Rv7W49cS5Cyw,Empresa de organización de eventos,Event management company,Event management company,Galicia,Lugo,"sports complex, Prevesos, Galicia, ES",{},24,Lugo,,
Polideportivo Municipal ‘A Ferrería’,,,"27122 Castroverde, Lugo",27122.0,43.0315365,-7.3237261,,"https://www.google.com/maps/place/Polideportivo+Municipal+%E2%80%98A+Ferrer%C3%ADa%E2%80%99/@43.0315365,-7.3237261,14z/data=!4m8!1m2!2m1!1sPolideportivo+Municipal+%E2%80%98A+Ferrer%C3%ADa%E2%80%99!3m4!1s0xd31b1620f7e43f3:0x54b7bb7df0989d3e!8m2!3d43.0315365!4d-7.3237261",ChIJ80N-D2KxMQ0RPp2Y8H27t1Q,Polideportivo,Sports complex,Sports complex,Galicia,,"sports complex, Prevesos, Galicia, ES","{""Accessibility"": {""Wheelchair-accessible car park"": true, ""Wheelchair-accessible entrance"": true}}",25,Lugo,,
Forus Lugo,+34 982 25 24 66,https://forus.es/centros-forus/lugo/lugo/,"Rúa Iglesias Otero, 52, 27004 Lugo",27004.0,42.9955425,-7.570667899999999,,"https://www.google.com/maps/place/Forus+Lugo/@42.9955425,-7.570667899999999,14z/data=!4m8!1m2!2m1!1sForus+Lugo!3m4!1s0xd31cdd770b2a039:0x8e750de2554aba9f!8m2!3d42.9955425!4d-7.570667899999999",ChIJOaCycNfNMQ0Rn7pKVeINdY4,Gimnasio,Gymnastics center,"Gymnastics center, Athletic club, Fitness center",Galicia,Lugo,"sports complex, Prevesos, Galicia, ES","{""Accessibility"": {""Wheelchair-accessible car park"": true, ""Wheelchair-accessible entrance"": true}, ""Amenities"": {""Basketball court"": true, ""Has a tennis court"": true, ""Sauna"": true, ""Swimming pool"": true}, ""Children"": {""Good for kids"": true}}",26,Lugo,,
Pista de Patinaxe - Parque de Rosalía,+34 982 27 65 12,,"Rúa Frai Plácido Rei Lemos, 11-17, 27004 Lugo",27004.0,43.0059782,-7.5607114,,"https://www.google.com/maps/place/Pista+de+Patinaxe+-+Parque+de+Rosal%C3%ADa/@43.0059782,-7.5607114,14z/data=!4m8!1m2!2m1!1sPista+de+Patinaxe+-+Parque+de+Rosal%C3%ADa!3m4!1s0xd31ce83bce68969:0x628de57fda25d7d8!8m2!3d43.0059782!4d-7.5607114",ChIJaYnmvIPOMQ0R2Ncl2n_ljWI,Pista de patinaje sobre ruedas,Roller skating rink,Roller skating rink,Galicia,Lugo,"sports complex, Prevesos, Galicia, ES","{""Accessibility"": {""Wheelchair-accessible entrance"": true}}",27,Lugo,,
BeOne Fitness & Sport,+34 982 13 01 41,http://beone.es/centers/ribadeo,"Rúa Pintor Fierros, s/n, 27700 Ribadeo, Lugo",27700.0,43.5350142,-7.049949499999999,,"https://www.google.com/maps/place/BeOne+Fitness+%26+Sport/@43.5350142,-7.049949499999999,14z/data=!4m8!1m2!2m1!1sBeOne+Fitness+%26+Sport!3m4!1s0xd317efffdb1ac59:0x5e54bfb31fcf823a!8m2!3d43.5350142!4d-7.049949499999999",ChIJWayx_f9-MQ0ROoLPH7O_VF4,Centro deportivo,Fitness center,"Fitness center, Gymnastics center, Swimming pool",Galicia,,"sports complex, Prevesos, Galicia, ES","{""Accessibility"": {""Wheelchair-accessible car park"": true, ""Wheelchair-accessible entrance"": true}, ""Amenities"": {""Sauna"": true, ""Swimming pool"": true}, ""Crowd"": {""LGBTQ+ friendly"": true}, ""Children"": {""Good for kids"": true}, ""Other"": {""LGBTQ+ friendly"": true}}",28,Mariña Oriental,,
Parque de trial,,,"Lugar Matela, 503, 27150 Outeiro de Rei, Lugo",27150.0,43.1167302,-7.5951888,,"https://www.google.com/maps/place/Parque+de+trial/@43.1167302,-7.5951888,14z/data=!4m8!1m2!2m1!1sParque+de+trial!3m4!1s0xd31c5848d3b4a47:0xb70486671edf83a1!8m2!3d43.1167302!4d-7.5951888",ChIJR0o7jYTFMQ0RoYPfHmeGBLc,Centro de deportes de aventura,Adventure sports center,Adventure sports center,Galicia,,"sports complex, Prevesos, Galicia, ES",{},29,Lugo,,
Lugo Sporting Club,+34 982 25 03 45,http://www.cdlugo.com/,"Campo de futbol Anxo Carro, Avenida de los Deportes, s/n, 27004 Lugo",27004.0,43.0035403,-7.5704189,,"https://www.google.com/maps/place/Lugo+Sporting+Club/@43.0035403,-7.5704189,14z/data=!4m8!1m2!2m1!1sLugo+Sporting+Club!3m4!1s0xd31ce87031d333f:0x164823a8eab06036!8m2!3d43.0035403!4d-7.5704189",ChIJPzMdA4fOMQ0RNmCw6qgjSBY,Club deportivo,Sports club,"Sports club, Soccer club, Stadium",Galicia,Lugo,"sports complex, Prevesos, Galicia, ES","{""Accessibility"": {""Wheelchair-accessible car park"": true, ""Wheelchair-accessible entrance"": true}}",30,Lugo,,
"Estadio ""O Pichon""",,,"Av. de Pastoriza, 27377 Muimenta, Lugo",27377.0,43.2547981,-7.4261538,,"https://www.google.com/maps/place/Estadio+%22O+Pichon%22/@43.254798099999995,-7.4261538,14z/data=!4m8!1m2!2m1!1sEstadio+%22O+Pichon%22!3m4!1s0xd31954fb56ad985:0x64f693e16fc65348!8m2!3d43.254798099999995!4d-7.4261538",ChIJhdlqtU-VMQ0RSFPGb-GT9mQ,Estadio,Stadium,Stadium,Galicia,,"sports complex, Prevesos, Galicia, ES","{""Accessibility"": {""Wheelchair-accessible car park"": true, ""Wheelchair-accessible entrance"": true}}",31,Tierra Chá,,
Skatepark - Frigsa,,,"Av. de A Coruña, 27297 Lugo",27297.0,43.0256205,-7.5603386,,"https://www.google.com/maps/place/Skatepark+-+Frigsa/@43.025620499999995,-7.5603386,14z/data=!4m8!1m2!2m1!1sSkatepark+-+Frigsa!3m4!1s0xd31cef3c84b14c1:0xaf909c8ed575fbf6!8m2!3d43.025620499999995!4d-7.5603386",ChIJwRRLyPPOMQ0R9vt11Y6ckK8,attractions,Skateboard park,Skateboard park,Galicia,Lugo,"sports complex, Prevesos, Galicia, ES","{""Accessibility"": {""Wheelchair-accessible entrance"": true}, ""Children"": {""Good for kids"": true}}",32,Lugo,,
Pabellón de Ribadeo,,,"Ribadeo, 27700 Ribadeo, Lugo",27700.0,43.5367089,-7.052064,,"https://www.google.com/maps/place/Pabell%C3%B3n+de+Ribadeo/@43.5367089,-7.052064,14z/data=!4m8!1m2!2m1!1sPabell%C3%B3n+de+Ribadeo!3m4!1s0xd317faaf3cf0973:0x32ba0a1e9cc9351!8m2!3d43.5367089!4d-7.052064",ChIJcwnP86p_MQ0RUZPM6aGgKwM,Polideportivo,Sports complex,Sports complex,Galicia,,"sports complex, Prevesos, Galicia, ES","{""Accessibility"": {""Wheelchair-accessible car park"": true, ""Wheelchair-accessible entrance"": true}}",33,Mariña Oriental,,
Estadio Anxo Carro,+34 982 23 17 54,https://www.cdlugo.com/,"Av. dos Deportes, s/n, 27004 Lugo",27004.0,43.0032743,-7.570963799999999,,"https://www.google.com/maps/place/Estadio+Anxo+Carro/@43.0032743,-7.5709637999999995,14z/data=!4m8!1m2!2m1!1sEstadio+Anxo+Carro!3m4!1s0xd31ce7f097c4fa1:0xa3e6a885cea929b2!8m2!3d43.0032743!4d-7.5709637999999995",ChIJoU98CX_OMQ0RsimpzoWo5qM,Estadio,Stadium,Stadium,Galicia,Lugo,"sports complex, Prevesos, Galicia, ES","{""Accessibility"": {""Wheelchair-accessible car park"": true, ""Wheelchair-accessible entrance"": true}}",34,Lugo,,
Piscina Municipal Exterior de Frigsa,,,"Av. Infanta Elena, 56, 27297 Lugo",27297.0,43.0268703,-7.5610808,,"https://www.google.com/maps/place/Piscina+Municipal+Exterior+de+Frigsa/@43.0268703,-7.5610808,14z/data=!4m8!1m2!2m1!1sPiscina+Municipal+Exterior+de+Frigsa!3m4!1s0xd31cfc5e01246a3:0x6b27b039743f279d!8m2!3d43.0268703!4d-7.5610808",ChIJo0YS4MXPMQ0RnSc_dDmwJ2s,Piscina,Swimming pool,Swimming pool,Galicia,Lugo,"sports complex, Prevesos, Galicia, ES","{""Accessibility"": {""Wheelchair-accessible car park"": true, ""Wheelchair-accessible entrance"": true}}",35,Lugo,,
Pista Vermella,,,"Freixeiro, 36210 Vigo, Pontevedra",36210.0,42.2188387,-8.7314122,,"https://www.google.com/maps/place/Pista+Vermella/@42.2188387,-8.7314122,14z/data=!4m8!1m2!2m1!1sPista+Vermella!3m4!1s0xd2f63a76c0dbd5d:0x81581494597734c2!8m2!3d42.2188387!4d-8.7314122",ChIJXb0NbKdjLw0RwjR3WZQUWIE,Polideportivo,Sports complex,Sports complex,Galicia,,"sports complex, Prevesos, Galicia, ES","{""Accessibility"": {""Wheelchair-accessible entrance"": true}}",36,Vigo,,
Polideportivo municipal de Trabada,+34 982 13 50 11,http://www.trabada.es/,"Av. Grupo Escolar, 27765 Trabada, Lugo",27765.0,43.4444007,-7.1953206,,"https://www.google.com/maps/place/Polideportivo+municipal+de+Trabada/@43.444400699999996,-7.1953206,14z/data=!4m8!1m2!2m1!1sPolideportivo+municipal+de+Trabada!3m4!1s0xd31848c084dd41b:0x487dfcfb6fe0f4a0!8m2!3d43.444400699999996!4d-7.1953206",ChIJG9RNCIyEMQ0RoPTgb_v8fUg,Polideportivo,Sports complex,Sports complex,Galicia,,"sports complex, Prevesos, Galicia, ES","{""Accessibility"": {""Wheelchair-accessible car park"": true, ""Wheelchair-accessible entrance"": true}}",37,Mariña Oriental,,
Charca do Rego,,,"27816, Lugo",27816.0,43.3489649,-7.6796529,,"https://www.google.com/maps/place/Charca+do+Rego/@43.3489649,-7.6796529,14z/data=!4m8!1m2!2m1!1sCharca+do+Rego!3m4!1s0xd31e500479b9ead:0x3eb61b57da5ea460!8m2!3d43.3489649!4d-7.6796529",ChIJrZ6bRwDlMQ0RYKRe2lcbtj4,Piscina al aire libre,Outdoor swimming pool,Outdoor swimming pool,Galicia,,"sports complex, Prevesos, Galicia, ES",{},38,Tierra Chá,,
Skatepark - Frigsa (Half pipe),,,"Rúa Monte Faro, 56, 27297 Lugo",27297.0,43.0258132,-7.5618228,,"https://www.google.com/maps/place/Skatepark+-+Frigsa+%28Half+pipe%29/@43.025813199999995,-7.5618228,14z/data=!4m8!1m2!2m1!1sSkatepark+-+Frigsa+%28Half+pipe%29!3m4!1s0xd31cf4d49a6b09d:0xc75607367207624d!8m2!3d43.025813199999995!4d-7.5618228",ChIJnbCmSU3PMQ0RTWIHcjYHVsc,attractions,Skateboard park,Skateboard park,Galicia,Lugo,"sports complex, Prevesos, Galicia, ES","{""Accessibility"": {""Wheelchair-accessible entrance"": true}, ""Children"": {""Good for kids"": true}}",39,Lugo,,
Campo Municipal,,,27297 Lugo,27297.0,43.0330756,-7.5500808,,"https://www.google.com/maps/place/Campo+Municipal/@43.0330756,-7.5500808,14z/data=!4m8!1m2!2m1!1sCampo+Municipal!3m4!1s0xd31cf0069505445:0xc7ffc116aa4557b!8m2!3d43.0330756!4d-7.5500808",ChIJRVRQaQDPMQ0Re1WkahH8fww,Stade,Stadium,Stadium,Galicia,Lugo,"sports complex, Prevesos, Galicia, ES",{},40,Lugo,,
Pabellón Municipal A Feira do Monte,,,"27377 A Feira do Monte, Lugo",27377.0,43.2361649,-7.5596248,,"https://www.google.com/maps/place/Pabell%C3%B3n+Municipal+A+Feira+do+Monte/@43.2361649,-7.5596248,14z/data=!4m8!1m2!2m1!1sPabell%C3%B3n+Municipal+A+Feira+do+Monte!3m4!1s0xd31e9ba955db68d:0xc032cb84f0f69ffc!8m2!3d43.2361649!4d-7.5596248",ChIJjbZdlbrpMQ0R_J_28ITLMsA,Polideportivo,Sports complex,Sports complex,Galicia,,"sports complex, Prevesos, Galicia, ES","{""Accessibility"": {""Wheelchair-accessible entrance"": true}}",41,Tierra Chá,,
Piscina Municipal De Frigsa,+34 982 29 74 23,http://lugo.gal/,"Rúa Monte Faro, 57, 27297 Lugo",27297.0,43.0265313,-7.5620743,,"https://www.google.com/maps/place/Piscina+Municipal+De+Frigsa/@43.026531299999995,-7.5620743,14z/data=!4m8!1m2!2m1!1sPiscina+Municipal+De+Frigsa!3m4!1s0xd31cef3e5547b57:0x3792d64046a415b!8m2!3d43.026531299999995!4d-7.5620743",ChIJV3tU5fPOMQ0RW0FqBGQteQM,attractions,Public swimming pool,Public swimming pool,Galicia,Lugo,"sports complex, Prevesos, Galicia, ES","{""Accessibility"": {""Wheelchair-accessible car park"": true, ""Wheelchair-accessible entrance"": true}, ""Children"": {""Good for kids"": true}}",42,Lugo,,
Lucus CrossFit Lugo,+34 679 45 53 14,http://www.lucuscrossfit.es/,"R. Barbeito María, 4, 27003 Lugo",27003.0,43.0378915,-7.5503613,,"https://www.google.com/maps/place/Lucus+CrossFit+Lugo/@43.0378915,-7.5503613,14z/data=!4m8!1m2!2m1!1sLucus+CrossFit+Lugo!3m4!1s0xd31ce515c47265b:0x17b77ed21cde5e48!8m2!3d43.0378915!4d-7.5503613",ChIJWyZHXFHOMQ0RSF7eHNJ-txc,Gimnasio,Gymnastics center,"Gymnastics center, Fitness center",Galicia,Lugo,"sports complex, Prevesos, Galicia, ES","{""Accessibility"": {""Wheelchair-accessible car park"": true, ""Wheelchair-accessible entrance"": true, ""Wheelchair-accessible toilet"": true}, ""Amenities"": {""Toilets"": true}}",44,Lugo,,
Campo de Futbol de Perlío (Os Pinares),,,"Camiño Castro, 34, 15500 Fene, A Coruña",15500.0,43.4646824,-8.17107,,"https://www.google.com/maps/place/Campo+de+Futbol+de+Perl%C3%ADo+%28Os+Pinares%29/@43.4646824,-8.17107,14z/data=!4m8!1m2!2m1!1sCampo+de+Futbol+de+Perl%C3%ADo+%28Os+Pinares%29!3m4!1s0xd2e75039085f499:0x54a98f311fdde2d2!8m2!3d43.4646824!4d-8.17107",ChIJmfSFkAN1Lg0R0uLdHzGPqVQ,Soccer field,Soccer field,Soccer field,Galicia,,"sports complex, Cruceiro, O (Perlio), Galicia, ES","{""Accessibility"": {""Wheelchair-accessible entrance"": true}}",45,Ferrol,,
Piscina Municipal Bastavales (Brión),,,"15280 Sabaxans, A Coruña",15280.0,42.8258858,-8.660772099999999,,"https://www.google.com/maps/place/Piscina+Municipal+Bastavales+%28Bri%C3%B3n%29/@42.825885799999995,-8.660772099999999,14z/data=!4m8!1m2!2m1!1sPiscina+Municipal+Bastavales+%28Bri%C3%B3n%29!3m4!1s0xd2f1d473f83e74b:0x7a77d04338cd5cd1!8m2!3d42.825885799999995!4d-8.660772099999999",ChIJS-eDP0cdLw0R0VzNOEPQd3o,attractions,Public swimming pool,Public swimming pool,Galicia,,"swimming pool, Triñans, Galicia, ES","{""Accessibility"": {""Wheelchair-accessible car park"": false}, ""Children"": {""Good for kids"": true}}",46,Santiago,,
Piscina Municipal de Marín,+34 986 88 31 58,http://www.piscinademarin.com/,"Camiño A Raña, s/n, 36915 Marín, Pontevedra",36915.0,42.383789,-8.694194,,"https://www.google.com/maps/place/Piscina+Municipal+de+Mar%C3%ADn/@42.383789,-8.694194,14z/data=!4m8!1m2!2m1!1sPiscina+Municipal+de+Mar%C3%ADn!3m4!1s0xd2f6f85ec67ba51:0x4889fbb7e60186e8!8m2!3d42.383789!4d-8.694194",ChIJUbpn7IVvLw0R6IYB5rf7iUg,attractions,Public swimming pool,"Public swimming pool, Gym",Galicia,,"swimming pool, Triñans, Galicia, ES","{""Accessibility"": {""Wheelchair-accessible car park"": true, ""Wheelchair-accessible entrance"": true}, ""Children"": {""Good for kids"": true}}",47,Morrazo,,
Piscina Municipal do Tres,,,"Tres, 14, 15637 Vilarmaior, A Coruña",15637.0,43.340724,-8.1565312,,"https://www.google.com/maps/place/Piscina+Municipal+do+Tres/@43.340724,-8.1565312,14z/data=!4m8!1m2!2m1!1sPiscina+Municipal+do+Tres!3m4!1s0xd2e6dde73fb59e9:0x4b4de9976e981803!8m2!3d43.340724!4d-8.1565312",ChIJ6Vn7c95tLg0RAxiYbpfpTUs,Piscina al aire libre,Outdoor swimming pool,Outdoor swimming pool,Galicia,Vilarmaior,"swimming pool, Triñans, Galicia, ES","{""Accessibility"": {""Wheelchair-accessible entrance"": true}}",48,Betanzos,,
Piscinas municipais de Toén,,http://www.toen.es/,"Arrabal Ribadela, 51, 32930 Toén, Province of Ourense",32930.0,42.3150204,-7.9569057,,"https://www.google.com/maps/place/Piscinas+municipais+de+To%C3%A9n/@42.315020399999995,-7.9569057,14z/data=!4m8!1m2!2m1!1sPiscinas+municipais+de+To%C3%A9n!3m4!1s0xd2ff9d526aa1bc3:0xec6de992e505644e!8m2!3d42.315020399999995!4d-7.9569057",ChIJwxuqJtX5Lw0RTmQF5ZLpbew,attractions,Public swimming pool,Public swimming pool,Galicia,,"swimming pool, Triñans, Galicia, ES","{""Accessibility"": {""Wheelchair-accessible car park"": true, ""Wheelchair-accessible entrance"": true}, ""Children"": {""Good for kids"": true}}",49,Orense,,
Piscina Municipal De Moraña,+34 986 55 20 18,http://www.morana.org/,"A Bouza, 36668 Moraña, Pontevedra",36668.0,42.5820208,-8.5845823,,"https://www.google.com/maps/place/Piscina+Municipal+De+Mora%C3%B1a/@42.582020799999995,-8.5845823,14z/data=!4m8!1m2!2m1!1sPiscina+Municipal+De+Mora%C3%B1a!3m4!1s0xd2f0c62c057f6ef:0xc0c9a338a9794eb5!8m2!3d42.582020799999995!4d-8.5845823",ChIJ7_ZXwGIMLw0RtU55qTijycA,attractions,Public swimming pool,Public swimming pool,Galicia,,"swimming pool, Triñans, Galicia, ES","{""Accessibility"": {""Wheelchair-accessible car park"": true, ""Wheelchair-accessible entrance"": true}, ""Children"": {""Good for kids"": true}}",50,Caldas,,
Piscinas Municipales,+34 988 43 40 00,http://www.calvosderandin.com/,"Camiño da Laborada, 4, 32648 Calvos de Randin, Ourense",32648.0,41.9461516,-7.896474599999999,,"https://www.google.com/maps/place/Piscinas+Municipales/@41.9461516,-7.8964745999999995,14z/data=!4m8!1m2!2m1!1sPiscinas+Municipales!3m4!1s0xd25363f9f52284f:0x9749d9622c7bddd1!8m2!3d41.9461516!4d-7.8964745999999995",ChIJTyhSnz82JQ0R0d17LGLZSZc,attractions,Public swimming pool,Public swimming pool,Galicia,Calvos de Randín,"swimming pool, Triñans, Galicia, ES","{""Children"": {""Good for kids"": true}}",51,Limia,,
Piscinas de Ponte Noalla,+34 608 77 25 10,https://sancibrao.es/deportes/piscinas-municipais/,"Lugar, 10, 32915 A Ponte Noalla, Ourense",32915.0,42.2830268,-7.8378431,,"https://www.google.com/maps/place/Piscinas+de+Ponte+Noalla/@42.283026799999995,-7.8378431,14z/data=!4m8!1m2!2m1!1sPiscinas+de+Ponte+Noalla!3m4!1s0xd2555878b986273:0xc82c9744cdcfc62e!8m2!3d42.283026799999995!4d-7.8378431",ChIJc2KYi4dVJQ0RLsbPzUSXLMg,attractions,Public swimming pool,Public swimming pool,Galicia,,"swimming pool, Triñans, Galicia, ES","{""Accessibility"": {""Wheelchair-accessible car park"": true, ""Wheelchair-accessible entrance"": true}, ""Children"": {""Good for kids"": true}}",52,Orense,,
Piscina Municipal,+34 981 82 69 66,https://piscinasmunicipales.es/la-coruna/piscina-municipal-de-serres/,"s/n, Lugar Soborribas, 15259 Serres, A Coruña",15259.0,42.7882816,-9.0685678,,"https://www.google.com/maps/place/Piscina+Municipal/@42.7882816,-9.0685678,14z/data=!4m8!1m2!2m1!1sPiscina+Municipal!3m4!1s0xd2f29ba40a4f6bd:0x59c944e8b1f9a36!8m2!3d42.7882816!4d-9.0685678",ChIJvfakQLopLw0RNpofi06UnAU,attractions,Public swimming pool,Public swimming pool,Galicia,,"swimming pool, Triñans, Galicia, ES","{""Accessibility"": {""Wheelchair-accessible car park"": true, ""Wheelchair-accessible entrance"": true}, ""Children"": {""Good for kids"": true}}",53,Muros,,
Piscina Municipal,,,"Calle Circunvalación Don Aurelio, 15, 36670 Cuntis, Pontevedra",36670.0,42.6321629,-8.5639211,,"https://www.google.com/maps/place/Piscina+Municipal/@42.6321629,-8.5639211,14z/data=!4m8!1m2!2m1!1sPiscina+Municipal!3m4!1s0xd2f094e4aaa542f:0x9ba226c8903600a6!8m2!3d42.6321629!4d-8.5639211",ChIJL1SqSk4JLw0RpgA2kMgmops,attractions,Public swimming pool,Public swimming pool,Galicia,,"swimming pool, Triñans, Galicia, ES","{""Accessibility"": {""Wheelchair-accessible car park"": true, ""Wheelchair-accessible entrance"": true}, ""Children"": {""Good for kids"": true}}",54,Caldas,,
"Piscina Municipal Visantoña, Santiso",,,"Unnamed Road, 15808, A Coruña",15808.0,42.8611223,-8.117429,,"https://www.google.com/maps/place/Piscina+Municipal+Visanto%C3%B1a%2C+Santiso/@42.8611223,-8.117429,14z/data=!4m8!1m2!2m1!1sPiscina+Municipal+Visanto%C3%B1a%2C+Santiso!3m4!1s0xd2fcb707d296e6d:0x51eccd6c0222710d!8m2!3d42.8611223!4d-8.117429",ChIJbW4pfXDLLw0RDXEiAmzN7FE,Piscinas,Swimming facility,Swimming facility,Galicia,,"swimming pool, Triñans, Galicia, ES","{""Accessibility"": {""Wheelchair-accessible entrance"": true}}",55,Tierra de Melide,,
Piscina Municipal da Escravitude,,,"15980 Padrón, A Coruña",15980.0,42.7943356,-8.6445357,,"https://www.google.com/maps/place/Piscina+Municipal+da+Escravitude/@42.7943356,-8.6445357,14z/data=!4m8!1m2!2m1!1sPiscina+Municipal+da+Escravitude!3m4!1s0xd2f03394dde6791:0xc5aecdf995dce95e!8m2!3d42.7943356!4d-8.6445357",ChIJkWfeTTkDLw0RXunclfnNrsU,attractions,Public swimming pool,Public swimming pool,Galicia,Padrón,"swimming pool, Triñans, Galicia, ES","{""Accessibility"": {""Wheelchair-accessible car park"": true, ""Wheelchair-accessible entrance"": true}, ""Children"": {""Good for kids"": true}}",56,Sar,,
Piscina Municipal,+34 981 83 04 70,https://apobra.gal/es/,"Centro Escolar, 15949 A Pobra do Caramiñal, A Coruña",15949.0,42.5981064,-8.9410508,,"https://www.google.com/maps/place/Piscina+Municipal/@42.5981064,-8.9410508,14z/data=!4m8!1m2!2m1!1sPiscina+Municipal!3m4!1s0xd2f3b186768624f:0xe36e571418fc08ce!8m2!3d42.5981064!4d-8.9410508",ChIJT2JoZxg7Lw0Rzgj8GBRXbuM,Piscina,Swimming pool,Swimming pool,Galicia,,"swimming pool, Triñans, Galicia, ES","{""Accessibility"": {""Wheelchair-accessible car park"": true, ""Wheelchair-accessible entrance"": true}}",57,Barbanza,,
Piscina Fluvial Viceso,,,"Aldea Ninans, 15839, A Coruña",15839.0,42.8578166,-8.7460177,,"https://www.google.com/maps/place/Piscina+Fluvial+Viceso/@42.8578166,-8.7460177,14z/data=!4m8!1m2!2m1!1sPiscina+Fluvial+Viceso!3m4!1s0xd2ee39c7149e287:0xebee22c9948c96d3!8m2!3d42.8578166!4d-8.7460177",ChIJh-JJcZzjLg0R05aMlMki7us,Piscina al aire libre,Outdoor swimming pool,Outdoor swimming pool,Galicia,,"swimming pool, Triñans, Galicia, ES","{""Accessibility"": {""Wheelchair-accessible entrance"": true}}",59,Santiago,,
Piscina municipal de Noia,+34 981 82 41 35,,"Rúa Pintor Xenaro Carrero, s/n, 15200 Vila de Noia, A Coruña",15200.0,42.7893029,-8.8899385,,"https://www.google.com/maps/place/Piscina+municipal+de+Noia/@42.789302899999996,-8.8899385,14z/data=!4m8!1m2!2m1!1sPiscina+municipal+de+Noia!3m4!1s0xd2f2102ea7b8c69:0xb17251bc57ed724f!8m2!3d42.789302899999996!4d-8.8899385",ChIJaYx76gIhLw0RT3LtV7xRcrE,attractions,Public swimming pool,Public swimming pool,Galicia,,"swimming pool, Triñans, Galicia, ES","{""Accessibility"": {""Wheelchair-accessible car park"": true, ""Wheelchair-accessible entrance"": true}, ""Children"": {""Good for kids"": true}}",60,Noia,,
Piscina (Porto do Son),+34 604 05 11 89,,"Noal, 1, 15978 Porto do Son, A Coruña",15978.0,42.7271396,-8.9935776,,"https://www.google.com/maps/place/Piscina+%28Porto+do+Son%29/@42.7271396,-8.9935776,14z/data=!4m8!1m2!2m1!1sPiscina+%28Porto+do+Son%29!3m4!1s0xd2f25ebaeff75c5:0xa74379f16c4d14d7!8m2!3d42.7271396!4d-8.9935776",ChIJxXX_ruslLw0R1xRNbPF5Q6c,attractions,Public swimming pool,Public swimming pool,Galicia,,"swimming pool, Triñans, Galicia, ES","{""Accessibility"": {""Wheelchair-accessible car park"": true, ""Wheelchair-accessible entrance"": true}, ""Children"": {""Good for kids"": true}}",61,Noia,,
Piscina Municipal,+34 986 54 08 31,http://www.piscinadecaldas.es/,"Rúa Jose Salgado, 30, 36650 Caldas de Reis, Pontevedra",36650.0,42.6037725,-8.6362329,,"https://www.google.com/maps/place/Piscina+Municipal/@42.6037725,-8.6362329,14z/data=!4m8!1m2!2m1!1sPiscina+Municipal!3m4!1s0xd2f0dc258eca93b:0x57ba7135c7388a37!8m2!3d42.6037725!4d-8.6362329",ChIJO6nsWMINLw0RN4o4xzVxulc,Piscina,Swimming pool,Swimming pool,Galicia,,"swimming pool, Triñans, Galicia, ES","{""Accessibility"": {""Wheelchair-accessible car park"": true, ""Wheelchair-accessible entrance"": true}}",62,Caldas,,
Piscina municipal,,,"36612 Catoira, Pontevedra",36612.0,42.6709951,-8.728478599999999,,"https://www.google.com/maps/place/Piscina+municipal/@42.6709951,-8.728478599999999,14z/data=!4m8!1m2!2m1!1sPiscina+municipal!3m4!1s0xd2f10be67497ca3:0x51119d811ba2546f!8m2!3d42.6709951!4d-8.728478599999999",ChIJo3xJZ74QLw0Rb1SiG4GdEVE,attractions,Public swimming pool,Public swimming pool,Galicia,,"swimming pool, Triñans, Galicia, ES","{""Accessibility"": {""Wheelchair-accessible entrance"": true}, ""Children"": {""Good for kids"": true}}",63,Caldas,,
Piscina Municipal de Luou,,,"DP-6502, 5, 15883 Teo, A Coruña",15883.0,42.8081863,-8.573800499999999,,"https://www.google.com/maps/place/Piscina+Municipal+de+Luou/@42.808186299999996,-8.573800499999999,14z/data=!4m8!1m2!2m1!1sPiscina+Municipal+de+Luou!3m4!1s0xd2f03d6460f7095:0x580baa443238670a!8m2!3d42.808186299999996!4d-8.573800499999999",ChIJlXAPRtYDLw0RCmc4MkSqC1g,Piscina,Swimming pool,Swimming pool,Galicia,,"swimming pool, Triñans, Galicia, ES","{""Accessibility"": {""Wheelchair-accessible car park"": true, ""Wheelchair-accessible entrance"": true}}",64,Teo,,
Piscina pública de A Bandeira,+34 986 58 00 00,,"Rua a Devesa, 4, 36570 Bandeira, Pontevedra",36570.0,42.7255976,-8.3048693,,"https://www.google.com/maps/place/Piscina+p%C3%BAblica+de+A+Bandeira/@42.7255976,-8.3048693,14z/data=!4m8!1m2!2m1!1sPiscina+p%C3%BAblica+de+A+Bandeira!3m4!1s0xd2fb003a08cd40f:0x9605d06bc6d39c61!8m2!3d42.7255976!4d-8.3048693",ChIJD9SMoAOwLw0RYZzTxmvQBZY,attractions,Public swimming pool,Public swimming pool,Galicia,,"swimming pool, Triñans, Galicia, ES","{""Accessibility"": {""Wheelchair-accessible car park"": true, ""Wheelchair-accessible entrance"": true}, ""Children"": {""Good for kids"": true}}",65,Deza,,
Piscinas Míguez,+34 986 53 06 79,http://www.piscinasmiguez.com/,"Av. da Circunvalación, 40, 36670 Cuntis, Pontevedra",36670.0,42.5877492,-8.6427988,,"https://www.google.com/maps/place/Piscinas+M%C3%ADguez/@42.5877492,-8.6427988,14z/data=!4m8!1m2!2m1!1sPiscinas+M%C3%ADguez!3m4!1s0xd2f094f9659bdbb:0x8628805303f1c7bd!8m2!3d42.5877492!4d-8.6427988",ChIJu71Zlk8JLw0RvcfxA1OAKIY,Piscinas,Swimming facility,"Swimming facility, Pool cleaning service, Swimming pool contractor, Swimming pool repair service, Swimming pool supply store",Galicia,,"swimming pool, Triñans, Galicia, ES","{""From the business"": {""Identifies as women-owned"": true}, ""Accessibility"": {""Wheelchair-accessible car park"": true, ""Wheelchair-accessible entrance"": true}, ""Crowd"": {""LGBTQ+ friendly"": true}, ""Other"": {""LGBTQ+ friendly"": true, ""Identifies as women-owned"": true}}",66,Caldas,,
Aqus Piscinas,+34 687 01 81 41,http://www.aqus.es/,"Aldea Cabanas, 6, 36143 Matalobos, Pontevedra",36143.0,42.4138709,-8.638267899999999,,"https://www.google.com/maps/place/Aqus+Piscinas/@42.4138709,-8.638267899999999,14z/data=!4m8!1m2!2m1!1sAqus+Piscinas!3m4!1s0xd2f71c90fff962b:0xd856c1779c4881d7!8m2!3d42.4138709!4d-8.638267899999999",ChIJK5b_D8lxLw0R14FInHfBVtg,Piscina,Swimming pool,Swimming pool,Galicia,,"swimming pool, Triñans, Galicia, ES","{""Accessibility"": {""Wheelchair-accessible car park"": true, ""Wheelchair-accessible entrance"": true}}",67,Pontevedra,,
Piscina Municipal Cuberta Da Ramallosa,+34 981 80 39 22,http://beone.es/centers/teo,"Rúa da República Arxentina, 23, 15883 A Ramallosa, A Coruña",15883.0,42.7914158,-8.5516375,,"https://www.google.com/maps/place/Piscina+Municipal+Cuberta+Da+Ramallosa/@42.791415799999996,-8.5516375,14z/data=!4m8!1m2!2m1!1sPiscina+Municipal+Cuberta+Da+Ramallosa!3m4!1s0xd2f014736a46f63:0x2075f5ae0e8d13dc!8m2!3d42.791415799999996!4d-8.5516375",ChIJY2-kNkcBLw0R3BONDq71dSA,Centro deportivo,Swimming pool,"Swimming pool, Gymnastics center, Padel court, Fitness center",Galicia,,"swimming pool, Triñans, Galicia, ES","{""Accessibility"": {""Wheelchair-accessible car park"": true, ""Wheelchair-accessible entrance"": true}, ""Amenities"": {""Sauna"": true, ""Swimming pool"": true}, ""Crowd"": {""LGBTQ+ friendly"": true}, ""Children"": {""Good for kids"": true}, ""Other"": {""LGBTQ+ friendly"": true}}",68,Teo,,
Piscina e Ximnasio Municipáis de Padrón,+34 981 81 16 90,http://piscinadepadron.es/,"Lugar Souto, 0 S N, 15910 Padrón, A Coruña",15910.0,42.735311,-8.6608284,,"https://www.google.com/maps/place/Piscina+e+Ximnasio+Municip%C3%A1is+de+Padr%C3%B3n/@42.735310999999996,-8.6608284,14z/data=!4m8!1m2!2m1!1sPiscina+e+Ximnasio+Municip%C3%A1is+de+Padr%C3%B3n!3m4!1s0xd2f04ae9e64ae01:0xd4aa54f7f36bd87c!8m2!3d42.735310999999996!4d-8.6608284",ChIJAa5knq4ELw0RfNhr8_dUqtQ,attractions,Public swimming pool,"Public swimming pool, Gym",Galicia,Padrón,"swimming pool, Triñans, Galicia, ES","{""Accessibility"": {""Wheelchair-accessible car park"": true, ""Wheelchair-accessible entrance"": true}, ""Children"": {""Good for kids"": true}}",69,Sar,,
Piscina Municipal de Vilagarcía de Arousa,+34 986 51 27 16,https://www.serviocio.es/vilagarcia/,"Rúa Adolfo Pedrido Morla, s/n, 36611 Vilagarcía de Arousa, Pontevedra",36611.0,42.5841,-8.7749759,,"https://www.google.com/maps/place/Piscina+Municipal+de+Vilagarc%C3%ADa+de+Arousa/@42.5841,-8.7749759,14z/data=!4m8!1m2!2m1!1sPiscina+Municipal+de+Vilagarc%C3%ADa+de+Arousa!3m4!1s0xd2f1446fa059191:0xf569408b8bfe7aac!8m2!3d42.5841!4d-8.7749759",ChIJkZEF-kYULw0RrHr-i4tAafU,Centro deportivo,Swimming pool,"Swimming pool, Gymnastics center, Fitness center",Galicia,,"swimming pool, Triñans, Galicia, ES","{""Accessibility"": {""Wheelchair-accessible car park"": true, ""Wheelchair-accessible entrance"": true}, ""Crowd"": {""LGBTQ+ friendly"": true}, ""Children"": {""Good for kids"": true}, ""Other"": {""LGBTQ+ friendly"": true}}",70,Salnés,,
Piscina municipal Barro,,,"Lugar Santo Antoniño, 11, 36194, Pontevedra",36194.0,42.5232032,-8.633253999999999,,"https://www.google.com/maps/place/Piscina+municipal+Barro/@42.5232032,-8.633253999999999,14z/data=!4m8!1m2!2m1!1sPiscina+municipal+Barro!3m4!1s0xd2f73afd91bdd21:0x864dd38023871988!8m2!3d42.5232032!4d-8.633253999999999",ChIJId0b2a9zLw0RiBmHI4DTTYY,Piscina,Swimming pool,Swimming pool,Galicia,Barro,"swimming pool, Triñans, Galicia, ES","{""Accessibility"": {""Wheelchair-accessible car park"": true, ""Wheelchair-accessible entrance"": true}}",71,Pontevedra,,
Piscinas Salnés,+34 986 71 53 48,https://www.piscinassalnes.com/,"fontenla, 9, 36637 Fontenla, Pontevedra",36637.0,42.5162621,-8.6897899,,"https://www.google.com/maps/place/Piscinas+Saln%C3%A9s/@42.5162621,-8.6897899,14z/data=!4m8!1m2!2m1!1sPiscinas+Saln%C3%A9s!3m4!1s0xd2f6da338abb2ed:0xb5a62a4dbd37d201!8m2!3d42.5162621!4d-8.6897899",ChIJ7bKrOKNtLw0RAdI3vU0qprU,Contratista de piscinas,Swimming pool contractor,Swimming pool contractor,Galicia,Meis,"swimming pool, Triñans, Galicia, ES",{},72,Salnés,,
Piscina Municipal de Dena,,,"Rúa dos Colexios, 5, 36967 Meaño, Pontevedra",36967.0,42.4559713,-8.8135715,,"https://www.google.com/maps/place/Piscina+Municipal+de+Dena/@42.455971299999995,-8.8135715,14z/data=!4m8!1m2!2m1!1sPiscina+Municipal+de+Dena!3m4!1s0xd2f6a22b05b4f5d:0x102d185dfd3b0d58!8m2!3d42.455971299999995!4d-8.8135715",ChIJXU9bsCJqLw0RWA07_V0YLRA,attractions,Public swimming pool,Public swimming pool,Galicia,O Grove,"swimming pool, Triñans, Galicia, ES","{""Accessibility"": {""Wheelchair-accessible entrance"": true}, ""Children"": {""Good for kids"": true}}",73,Salnés,,
Piscinas Rairiz de Veiga,,,"Lugar Rairiz de Veiga, 6, 32652 Rairiz de Veiga, Ourense",32652.0,42.0878392,-7.832036899999999,,"https://www.google.com/maps/place/Piscinas+Rairiz+de+Veiga/@42.0878392,-7.832036899999999,14z/data=!4m8!1m2!2m1!1sPiscinas+Rairiz+de+Veiga!3m4!1s0xd254d205e270f21:0x6248faff4c98c433!8m2!3d42.0878392!4d-7.832036899999999",ChIJIQ8nXiBNJQ0RM8SYTP_6SGI,Swimming pool,Swimming pool,Swimming pool,Galicia,,"swimming pool, Triñans, Galicia, ES","{""Accessibility"": {""Wheelchair-accessible car park"": true, ""Wheelchair-accessible entrance"": true}}",74,Limia,,
Concello de Moraña,+34 986 55 20 18,http://morana.org/,"Rúa N 1, 2, 36660 Moraña, Pontevedra",36660.0,42.5892023,-8.5907357,,"https://www.google.com/maps/place/Concello+de+Mora%C3%B1a/@42.5892023,-8.5907357,14z/data=!4m8!1m2!2m1!1sConcello+de+Mora%C3%B1a!3m4!1s0xd2f0c7d3bb762ad:0xea5331edd1cc6eb8!8m2!3d42.5892023!4d-8.5907357",ChIJrWK3O30MLw0RuG7M0e0xU-o,attractions,Public swimming pool,Public swimming pool,Galicia,,"swimming pool, Triñans, Galicia, ES","{""Accessibility"": {""Wheelchair-accessible car park"": true}, ""Children"": {""Good for kids"": true}}",75,Caldas,,
BeOne Piscina Municipal Rianxo,+34 981 86 00 86,https://beone.es/centers/rianxo,"Rúa Rosalía de Castro, 6 A, 15920 Rianxo, A Coruña",15920.0,42.6522228,-8.8175144,,"https://www.google.com/maps/place/BeOne+Piscina+Municipal+Rianxo/@42.6522228,-8.8175144,14z/data=!4m8!1m2!2m1!1sBeOne+Piscina+Municipal+Rianxo!3m4!1s0xd2f17c6540ba93d:0x373864695c9c1de8!8m2!3d42.6522228!4d-8.8175144",ChIJPakLVMYXLw0R6B2cXGlkODc,Centro deportivo,Fitness center,"Fitness center, Gym, Swimming basin",Galicia,,"swimming pool, Triñans, Galicia, ES","{""Service options"": {""On-site services"": true}, ""Accessibility"": {""Wheelchair-accessible car park"": true, ""Wheelchair-accessible entrance"": true}, ""Amenities"": {""Sauna"": true, ""Swimming pool"": true}, ""Crowd"": {""LGBTQ+ friendly"": true}, ""Children"": {""Good for kids"": true}, ""Other"": {""LGBTQ+ friendly"": true}}",76,Barbanza,,
Polideportivo TRAPA,,,"Aldea o Mariño, 46, 15999 Goyanes, A Coruña",15999.0,42.7541175,-8.938750599999999,,"https://www.google.com/maps/place/Polideportivo+TRAPA/@42.7541175,-8.938750599999999,14z/data=!4m8!1m2!2m1!1sPolideportivo+TRAPA!3m4!1s0xd2f26a449e638c3:0xc4b0badce84b0cbb!8m2!3d42.7541175!4d-8.938750599999999",ChIJwzjmSaQmLw0RuwxL6Ny6sMQ,Fitness center,Fitness center,Fitness center,Galicia,,"swimming pool, Triñans, Galicia, ES","{""Accessibility"": {""Wheelchair-accessible car park"": true, ""Wheelchair-accessible entrance"": true}, ""Children"": {""Good for kids"": true}}",77,Noia,,
Piscinas Míguez,+34 986 53 06 79,https://www.piscinasmiguez.com/,"N-550, 4, 36655 Caldas de Reis, Pontevedra",36655.0,42.5877911,-8.6431325,,"https://www.google.com/maps/place/Piscinas+M%C3%ADguez/@42.5877911,-8.6431325,14z/data=!4m8!1m2!2m1!1sPiscinas+M%C3%ADguez!3m4!1s0xd2f0d3cf9776025:0x4fd785f2166d9377!8m2!3d42.5877911!4d-8.6431325",ChIJJWB3-TwNLw0Rd5NtFvKF108,Piscinas,Swimming facility,Swimming facility,Galicia,,"swimming pool, Triñans, Galicia, ES",{},78,Caldas,,
Therfri Norte Piscinas Gallegas,+34 986 18 11 63,http://www.piscinasgallegas.com/,"Rúa do Areal, 59, 36519 Lalín, Pontevedra",36519.0,42.6653983,-8.108503299999999,,"https://www.google.com/maps/place/Therfri+Norte+Piscinas+Gallegas/@42.6653983,-8.108503299999999,14z/data=!4m8!1m2!2m1!1sTherfri+Norte+Piscinas+Gallegas!3m4!1s0xd2fc739c66c8073:0xcb143df77c41e8cd!8m2!3d42.6653983!4d-8.108503299999999",ChIJc4BsxjnHLw0RzehBfPc9FMs,Tienda de artículos para piscinas,Swimming pool supply store,Swimming pool supply store,Galicia,,"swimming pool, Triñans, Galicia, ES","{""Service options"": {""Delivery"": true, ""In-store shopping"": true, ""Same-day delivery"": true}, ""Accessibility"": {""Wheelchair-accessible entrance"": true}, ""Payments"": {""Credit cards"": true, ""Debit cards"": true, ""NFC mobile payments"": true}}",79,Deza,,
Pavillón da Raña,+34 610 10 18 86,http://concellodemarin.es/?s=A+ra%C3%B1a,"Rúa Recamán, 26, 36915 Marín, Pontevedra",36915.0,42.3841577,-8.6976914,,"https://www.google.com/maps/place/Pavill%C3%B3n+da+Ra%C3%B1a/@42.384157699999996,-8.6976914,14z/data=!4m8!1m2!2m1!1sPavill%C3%B3n+da+Ra%C3%B1a!3m4!1s0xd2f6f8444d3f8df:0xf3e61f12de43f4a7!8m2!3d42.384157699999996!4d-8.6976914",ChIJ3_jTRIRvLw0Rp_RD3hIf5vM,Complexo deportivo,Sports complex,Sports complex,Galicia,,"swimming pool, Triñans, Galicia, ES","{""Accessibility"": {""Wheelchair-accessible car park"": true, ""Wheelchair-accessible entrance"": true}}",80,Morrazo,,
Centro deportivo municipal de Campolongo - BeOne Fitness & Sport,+34 986 86 38 55,http://beone.es/campolongo,"Praza da Constitución, s/n, 36003 Pontevedra",36003.0,42.4272692,-8.6443935,,"https://www.google.com/maps/place/Centro+deportivo+municipal+de+Campolongo+-+BeOne+Fitness+%26+Sport/@42.4272692,-8.6443935,14z/data=!4m8!1m2!2m1!1sCentro+deportivo+municipal+de+Campolongo+-+BeOne+Fitness+%26+Sport!3m4!1s0xd2f71ced064360f:0x3d8fee70b2977bc3!8m2!3d42.4272692!4d-8.6443935",ChIJDzZk0M5xLw0Rw3uXsnDujz0,Centro deportivo,Swimming pool,"Swimming pool, Gymnastics center, Fitness center",Galicia,,"swimming pool, Triñans, Galicia, ES","{""Service options"": {""On-site services"": true}, ""Accessibility"": {""Wheelchair-accessible entrance"": true, ""Wheelchair-accessible toilet"": true}, ""Amenities"": {""Sauna"": true, ""Swimming pool"": true, ""Toilets"": true, ""Wi-Fi"": true}, ""Children"": {""Good for kids"": true}}",81,Pontevedra,,
Complexo Deportivo Municipal A Fieiteira,+34 981 87 36 46,http://ribeira.gal/,"CP-7305, 3, 15967 Ribeira, A Coruña",15967.0,42.5467177,-8.9980992,,"https://www.google.com/maps/place/Complexo+Deportivo+Municipal+A+Fieiteira/@42.546717699999995,-8.9980992,14z/data=!4m8!1m2!2m1!1sComplexo+Deportivo+Municipal+A+Fieiteira!3m4!1s0xd2f38330993a19f:0x3bc57bc35b4d2b1!8m2!3d42.546717699999995!4d-8.9980992",ChIJn6GTCTM4Lw0RsdK0NbxXvAM,Polideportivo,Sports complex,"Sports complex, Fitness center",Galicia,Ribeira,"swimming pool, Triñans, Galicia, ES","{""Accessibility"": {""Wheelchair-accessible car park"": true, ""Wheelchair-accessible entrance"": true}}",82,Barbanza,,
Centro de Deportes Acuáticos Chapela,+34 986 45 07 37,http://www.centrodeportivochapela.es/,"Avda. San Telmo, 60, 36320 Chapela, Pontevedra",36320.0,42.2662218,-8.6755217,,"https://www.google.com/maps/place/Centro+de+Deportes+Acu%C3%A1ticos+Chapela/@42.2662218,-8.6755217,14z/data=!4m8!1m2!2m1!1sCentro+de+Deportes+Acu%C3%A1ticos+Chapela!3m4!1s0xd2f6326ba8cde51:0x5510ddd6aa67de2b!8m2!3d42.2662218!4d-8.6755217",ChIJUd6MuiZjLw0RK95nqtbdEFU,attractions,Public swimming pool,"Public swimming pool, Gym",Galicia,,"swimming pool, Triñans, Galicia, ES","{""Accessibility"": {""Wheelchair-accessible car park"": true, ""Wheelchair-accessible entrance"": true}, ""Children"": {""Good for kids"": true}}",83,Vigo,,
Hotel Apartamentos Spa Nanín Playa en Sanxenxo,+34 986 69 15 00,http://www.nanin.com/,"PO-308, s/n, 36960 Sanxenxo, Pontevedra",36960.0,42.3984544,-8.788079699999999,"Relaxed hotel offering a spa, an outdoor pool & direct beach access, plus a restaurant & free Wi-Fi.","https://www.google.com/maps/place/Hotel+Apartamentos+Spa+Nan%C3%ADn+Playa+en+Sanxenxo/@42.3984544,-8.788079699999999,14z/data=!4m8!1m2!2m1!1sHotel+Apartamentos+Spa+Nan%C3%ADn+Playa+en+Sanxenxo!3m4!1s0xd2f68f1febca705:0x86c51d11105dbdb5!8m2!3d42.3984544!4d-8.788079699999999",ChIJBae8_vFoLw0Rtb1dEBEdxYY,hotels,Swimming pool,"Swimming pool, Spa, Hotel, Holiday apartment",Galicia,,"swimming pool, Triñans, Galicia, ES","{""Other"": {""Beach access"": true, ""Spa"": true, ""Pool"": true, ""Free Wi-Fi"": true, ""Star rating"": ""3 stars"", ""Check-in time"": ""15:00""}, ""Amenities"": {""Free Wi-Fi"": true}}",84,Salnés,,
Piscina Cenlle,,,"32454 Cenlle, Province of Ourense",32454.0,42.3460528,-8.0861779,,"https://www.google.com/maps/place/Piscina+Cenlle/@42.346052799999995,-8.0861779,14z/data=!4m8!1m2!2m1!1sPiscina+Cenlle!3m4!1s0xd2ff3faa2909eb1:0xa4012c0e9a3801d1!8m2!3d42.346052799999995!4d-8.0861779",ChIJsZ6QovrzLw0R0QE4mg4sAaQ,Piscina,Swimming pool,Swimming pool,Galicia,Cenlle,"sports complex, Esposende (Cenlle), Galicia, ES","{""Accessibility"": {""Wheelchair-accessible entrance"": true}}",85,Ribeiro,,
"Polideportivo A Carballeira ""Secundino Basalo""",,,"Rúa Hórreo, 13, 32002 Ourense",32002.0,42.3338257,-7.874577599999999,,"https://www.google.com/maps/place/Polideportivo+A+Carballeira+%22Secundino+Basalo%22/@42.3338257,-7.874577599999999,14z/data=!4m8!1m2!2m1!1sPolideportivo+A+Carballeira+%22Secundino+Basalo%22!3m4!1s0xd2ff91ebd17c2a5:0x6b6a2c24aa0cb257!8m2!3d42.3338257!4d-7.874577599999999",ChIJpcIXvR75Lw0RV7IMqiQsams,Polideportivo,Sports complex,Sports complex,Galicia,,"sports complex, Esposende (Cenlle), Galicia, ES","{""Accessibility"": {""Wheelchair-accessible car park"": true, ""Wheelchair-accessible entrance"": true}}",86,Orense,,
Gaels Centro de Ocio,,http://www.gaels.es/,"Bajada al Balneario, 32, 32459 Ourense, Province of Ourense",32459.0,42.3282852,-8.030305799999999,,"https://www.google.com/maps/place/Gaels+Centro+de+Ocio/@42.328285199999996,-8.030305799999999,14z/data=!4m8!1m2!2m1!1sGaels+Centro+de+Ocio!3m4!1s0xd2ff69608625e5b:0x18f5c1ef96e0d91c!8m2!3d42.328285199999996!4d-8.030305799999999",ChIJW15iCJb2Lw0RHNnglu_B9Rg,Centro de paintball,Paintball center,Paintball center,Galicia,Cenlle,"sports complex, Esposende (Cenlle), Galicia, ES","{""Accessibility"": {""Wheelchair-accessible car park"": true, ""Wheelchair-accessible entrance"": true}}",87,Ribeiro,,
EVOFIT ORENSE,+34 988 68 66 15,,"Rúa Carballo, 1 PARQUE TECNOLOGICO DE, 32900, Province of Ourense",32900.0,42.294425,-7.802346,,"https://www.google.com/maps/place/EVOFIT+ORENSE/@42.294425,-7.802346,14z/data=!4m8!1m2!2m1!1sEVOFIT+ORENSE!3m4!1s0xd2ff9367fc2eef3:0x99f3bd87e6b6cf06!8m2!3d42.294425!4d-7.802346",ChIJ8-7Cfzb5Lw0RBs-25oe985k,Gimnasio,Gymnastics center,Gymnastics center,Galicia,,"sports complex, Esposende (Cenlle), Galicia, ES","{""From the business"": {""Identifies as women-owned"": true}, ""Service options"": {""Online classes"": true, ""Outdoor services"": true, ""On-site services"": true}, ""Accessibility"": {""Wheelchair-accessible car park"": true, ""Wheelchair-accessible entrance"": true, ""Wheelchair-accessible seating"": true, ""Wheelchair-accessible toilet"": true}, ""Amenities"": {""Toilets"": true, ""Swimming pool"": true}, ""Crowd"": {""LGBTQ+ friendly"": true, ""Transgender safe space"": true}, ""Parking"": {""Free parking lot"": true}, ""Other"": {""LGBTQ+ friendly"": true, ""Identifies as women-owned"": true}}",88,Orense,,
Pazo dos Deportes Paco Paz,+34 988 31 79 00,https://www.pazopacopaz.es/,"Finca Sevilla, 41, 32005 Ourense",32005.0,42.3170959,-7.8641223,,"https://www.google.com/maps/place/Pazo+dos+Deportes+Paco+Paz/@42.3170959,-7.8641223,14z/data=!4m8!1m2!2m1!1sPazo+dos+Deportes+Paco+Paz!3m4!1s0xd2ffec8d796d5cf:0x6a94ad10c586ccea!8m2!3d42.3170959!4d-7.8641223",ChIJz9WW18j-Lw0R6syGxRCtlGo,Centro deportivo,Fitness center,"Fitness center, Gymnastics center, Yoga studio",Galicia,,"sports complex, Esposende (Cenlle), Galicia, ES","{""Accessibility"": {""Wheelchair-accessible car park"": true, ""Wheelchair-accessible entrance"": true}, ""Amenities"": {""Basketball court"": true, ""Sauna"": true}, ""Crowd"": {""LGBTQ+ friendly"": true, ""Transgender safe space"": true}, ""Children"": {""Good for kids"": true}, ""Other"": {""LGBTQ+ friendly"": true}}",89,Orense,,
Polideportivo municipal de Maside,,,"Estrada de Cea, 18I, 32570 Maside, Ourense",32570.0,42.4144028,-8.0269259,,"https://www.google.com/maps/place/Polideportivo+municipal+de+Maside/@42.4144028,-8.0269259,14z/data=!4m8!1m2!2m1!1sPolideportivo+municipal+de+Maside!3m4!1s0xd2ff1e85327adbd:0x99f8ee2e47a9d47d!8m2!3d42.4144028!4d-8.0269259",ChIJva0nU-jxLw0RfdSpRy7u-Jk,Polideportivo,Sports complex,Sports complex,Galicia,,"sports complex, Esposende (Cenlle), Galicia, ES","{""Accessibility"": {""Wheelchair-accessible car park"": true, ""Wheelchair-accessible entrance"": true}}",90,O Carballiño,,
Polideportivo IES Universidade Laboral,,,"Rúa Cuña de Cima, 22, 32005 Ourense",32005.0,42.3173363,-7.8542371,,"https://www.google.com/maps/place/Polideportivo+IES+Universidade+Laboral/@42.3173363,-7.8542371,14z/data=!4m8!1m2!2m1!1sPolideportivo+IES+Universidade+Laboral!3m4!1s0xd2fffb3fb1fdc0b:0xbdecb10241c69c31!8m2!3d42.3173363!4d-7.8542371",ChIJC9wf-7P_Lw0RMZzGQQKx7L0,Polideportivo,Sports complex,Sports complex,Galicia,,"sports complex, Esposende (Cenlle), Galicia, ES","{""Accessibility"": {""Wheelchair-accessible car park"": true, ""Wheelchair-accessible entrance"": true}}",91,Orense,,
Pavillón dos Remedios,+34 988 37 05 39,http://www.deportesourense.com/,"Av. Pardo de Cela, 2, 32002 Ourense, Province of Ourense",32002.0,42.3435785,-7.8703596,,"https://www.google.com/maps/place/Pavill%C3%B3n+dos+Remedios/@42.3435785,-7.8703596,14z/data=!4m8!1m2!2m1!1sPavill%C3%B3n+dos+Remedios!3m4!1s0xd2ffeb49429299f:0x72ecd0fb03a79210!8m2!3d42.3435785!4d-7.8703596",ChIJnykplLT-Lw0REJKnA_vQ7HI,Complexo deportivo,Sports complex,"Sports complex, Fitness center",Galicia,,"sports complex, Esposende (Cenlle), Galicia, ES","{""Accessibility"": {""Wheelchair-accessible car park"": true, ""Wheelchair-accessible entrance"": true}}",92,Orense,,
Ximnasio Golfiños,+34 988 22 43 97,,"Av. de Celanova, 1, 32002 Barbadás, Province of Ourense",32002.0,42.3142608,-7.884230599999999,,"https://www.google.com/maps/place/Ximnasio+Golfi%C3%B1os/@42.3142608,-7.8842305999999995,14z/data=!4m8!1m2!2m1!1sXimnasio+Golfi%C3%B1os!3m4!1s0xd2ff8d9f58014a7:0xdc347080351c33c4!8m2!3d42.3142608!4d-7.8842305999999995",ChIJpxSA9dn4Lw0RxDMcNYBwNNw,Gimnasio,Gymnastics center,Gymnastics center,Galicia,,"sports complex, Esposende (Cenlle), Galicia, ES","{""Accessibility"": {""Wheelchair-accessible car park"": true, ""Wheelchair-accessible entrance"": true}, ""Amenities"": {""Swimming pool"": true}, ""Children"": {""Good for kids"": true}}",93,Orense,,
Polideportivo Taboadela,,,"32690 Taboadela, Province of Ourense",32690.0,42.2394115,-7.821175399999999,,"https://www.google.com/maps/place/Polideportivo+Taboadela/@42.239411499999996,-7.8211753999999996,14z/data=!4m8!1m2!2m1!1sPolideportivo+Taboadela!3m4!1s0xd2554fb88f96111:0xd82a9aa575ae4fd!8m2!3d42.239411499999996!4d-7.8211753999999996",ChIJEWH5iPtUJQ0R_eRaV6qpgg0,Polideportivo,Sports complex,Sports complex,Galicia,,"sports complex, Esposende (Cenlle), Galicia, ES","{""Accessibility"": {""Wheelchair-accessible car park"": true, ""Wheelchair-accessible entrance"": true}}",94,Orense,,
Polideportivo O Pompeo,,,"R. do Vilar, 32005 Ourense",32005.0,42.3324975,-7.8648853,,"https://www.google.com/maps/place/Polideportivo+O+Pompeo/@42.332497499999995,-7.8648853,14z/data=!4m8!1m2!2m1!1sPolideportivo+O+Pompeo!3m4!1s0xd2ffece596cc865:0x97a6a4aa33e672da!8m2!3d42.332497499999995!4d-7.8648853",ChIJZchsWc7-Lw0R2nLmM6qkppc,Polideportivo,Sports complex,Sports complex,Galicia,,"sports complex, Esposende (Cenlle), Galicia, ES","{""Accessibility"": {""Wheelchair-accessible entrance"": true}}",95,Orense,,
Centro de entrenamiento personal MAREAFIT,+34 635 47 90 43,,"Rúa Xunqueira, 26, 36620 Vilanova de Arousa, Pontevedra",36620.0,42.565503,-8.8286804,,"https://www.google.com/maps/place/Centro+de+entrenamiento+personal+MAREAFIT/@42.565503,-8.8286804,14z/data=!4m8!1m2!2m1!1sCentro+de+entrenamiento+personal+MAREAFIT!3m4!1s0xd2f1500617144a9:0x31fe2068d2884cd4!8m2!3d42.565503!4d-8.8286804",ChIJqURxYQAVLw0R1EyI0mgg_jE,Centro deportivo,Fitness center,Fitness center,Galicia,O Grove,"fitness center, Deiro (Tremoedo), Galicia, ES",{},96,Salnés,,
Vivesan Fitness,+34 722 28 93 16,,"Rúa Venezuela, 32500 O Carballiño, Ourense",32500.0,42.4303684,-8.0806425,,"https://www.google.com/maps/place/Vivesan+Fitness/@42.4303684,-8.0806425,14z/data=!4m8!1m2!2m1!1sVivesan+Fitness!3m4!1s0xd2feda93cac8803:0x431e5c9a422ffdbf!8m2!3d42.4303684!4d-8.0806425",ChIJA4isPKntLw0Rv_0vQppcHkM,Centro de salud y bienestar,Wellness center,"Wellness center, Pilates studio, Yoga studio",Galicia,,"fitness center, Torron, O (Carballiño, O), Galicia, ES","{""From the business"": {""Identifies as women-owned"": true}, ""Accessibility"": {""Wheelchair-accessible entrance"": true}, ""Other"": {""Identifies as women-owned"": true}}",97,O Carballiño,,
Fitness Salud,+34 611 09 07 17,,"Calle República de Argentina, 6, 32500 O Carballiño, Province of Ourense",32500.0,42.4314612,-8.0804233,,"https://www.google.com/maps/place/Fitness+Salud/@42.4314612,-8.0804233,14z/data=!4m8!1m2!2m1!1sFitness+Salud!3m4!1s0xd2fed35f6a7433b:0x56c8b0fdb008c07!8m2!3d42.4314612!4d-8.0804233",ChIJO0On9jXtLw0RB4wA2w-LbAU,Gimnasio,Gym,Gym,Galicia,,"fitness center, Torron, O (Carballiño, O), Galicia, ES","{""Accessibility"": {""Wheelchair-accessible entrance"": true}, ""Amenities"": {""Sauna"": true, ""Toilets"": true, ""Wi-Fi"": true, ""Swimming pool"": true}, ""Crowd"": {""LGBTQ+ friendly"": true, ""Transgender safe space"": true}, ""Other"": {""LGBTQ+ friendly"": true}}",98,O Carballiño,,
Ximnasio Korpore,+34 988 60 99 86,https://instagram.com/korporefitness?igshid=YmMyMTA2M2Y=,"Rúa Juan Corral Pajariño, 9, 32500 O Carballiño, Ourense",32500.0,42.4270133,-8.0803213,,"https://www.google.com/maps/place/Ximnasio+Korpore/@42.4270133,-8.0803213,14z/data=!4m8!1m2!2m1!1sXimnasio+Korpore!3m4!1s0xd2fed866d3cf45b:0x10bac4aa45b91df!8m2!3d42.4270133!4d-8.0803213",ChIJW_Q8bYbtLw0R35FbpEqsCwE,Gimnasio,Gymnastics center,"Gymnastics center, Athletic track, Indoor cycling, Pilates studio, Sauna",Galicia,,"fitness center, Torron, O (Carballiño, O), Galicia, ES","{""Accessibility"": {""Wheelchair-accessible entrance"": true}, ""Amenities"": {""Sauna"": true}}",99,O Carballiño,,
Centro Social de Pastoriza,,,"Rúa Malveira, 15140 Pastoriza, A Coruña",15140.0,43.331287,-8.463723,,"https://www.google.com/maps/place/Centro+Social+de+Pastoriza/@43.331286999999996,-8.463723,14z/data=!4m8!1m2!2m1!1sCentro+Social+de+Pastoriza!3m4!1s0xd2e7d9fcbfb49d1:0x8c3e2545bdb6934e!8m2!3d43.331286999999996!4d-8.463723",ChIJ0Un7y599Lg0RTpO2vUUlPow,Gimnasio,Gym,Gym,Galicia,,"fitness center, Pastoriza, A (Casco Urbano), Galicia, ES","{""Accessibility"": {""Wheelchair-accessible entrance"": true}}",100,La Coruña,,